TRANSPORTER-16 OBJECT Q 
1 68430U 26067Q   26107.82489930  .00005243  00000+0  25934-3 0  9990
2 68430  97.4463  67.1926 0002014 105.2668 254.8789 15.18240827  2780
DISCO-2                 
1 68431U 26067R   26107.82576245  .00006236  00000+0  30838-3 0  9999
2 68431  97.4563  67.2138 0002358 151.7972 208.3390 15.18175708  2780
TRANSPORTER-16 OBJECT S 
1 68432U 26067S   26107.82836641  .00004199  00000+0  21029-3 0  9997
2 68432  97.4517  67.2014 0001406 176.3280 183.7964 15.17921600  2783
T.MICROSAT-22           
1 68433U 26067T   26107.84153914  .00003610  00000+0  18705-3 0  9999
2 68433  97.4533  67.1864 0003846 273.6537  86.4256 15.16816835  2785
TRANSPORTER-16 OBJECT U 
1 68434U 26067U   26107.82503937  .00002976  00000+0  14895-3 0  9992
2 68434  97.4540  67.2095 0002430 133.3221 226.8216 15.18171410  2782
ION SCV ASTOUNDING ALEX*
1 68435U 26067V   26107.89742043  .00002187  00000+0  11208-3 0  9992
2 68435  97.4507  67.2601 0000833 229.8069 130.3092 15.17621937  2790
TRANSPORTER-16 OBJECT W 
1 68436U 26067W   26107.89848865  .00003066  00000+0  15606-3 0  9995
2 68436  97.4503  67.2585 0000807 222.0650 138.0522 15.17563596  2799
TRANSPORTER-16 OBJECT X 
1 68437U 26067X   26107.63102621  .00008459  00000+0  41900-3 0  9998
2 68437  97.4470  66.9919 0000754 191.4753 168.6464 15.18014399  2757
TRANSPORTER-16 OBJECT Y 
1 68438U 26067Y   26107.82889430  .00013410  00000+0  66102-3 0  9994
2 68438  97.4485  67.1916 0000994 216.4967 143.6199 15.18058991  2782
TRANSPORTER-16 OBJECT Z 
1 68439U 26067Z   26107.83098561  .00010491  00000+0  52122-3 0  9996
2 68439  97.4482  67.1878 0000337 280.6444  79.4752 15.17846770  2781
TRANSPORTER-16 OBJECT AA
1 68440U 26067AA  26107.43482810  .00012146  00000+0  60112-3 0  9995
2 68440  97.4478  66.7989 0000353 279.0473  81.0721 15.17943236  2722
TRANSPORTER-16 OBJECT AB
1 68441U 26067AB  26107.83331669  .00002476  00000+0  12598-3 0  9995
2 68441  97.4450  67.1823 0001058 316.3037  43.8113 15.17752058  2786
TRANSPORTER-16 OBJECT AC
1 68442U 26067AC  26107.83793082  .00003962  00000+0  20318-3 0  9997
2 68442  97.4500  67.1837 0002493 286.6897  73.4062 15.17125968  2781
TRANSPORTER-16 OBJECT AD
1 68443U 26067AD  26107.83863122  .00003630  00000+0  18679-3 0  9990
2 68443  97.4509  67.1851 0002777 290.4910  69.6025 15.17058652  2782
TRANSPORTER-16 OBJECT AE
1 68444U 26067AE  26107.82545925  .00004456  00000+0  22141-3 0  9994
2 68444  97.4533  67.2076 0002135 137.5282 222.6117 15.18165352  2781
TRANSPORTER-16 OBJECT AF
1 68445U 26067AF  26107.84038080  .00003098  00000+0  16063-3 0  9993
2 68445  97.4479  67.1754 0003295 298.5143  61.5758 15.16901410  2787
